NORAD_CAT_ID,OBJECT_NAME,OBJECT_TYPE,EPOCH,MEAN_MOTION,ECCENTRICITY,INCLINATION,RA_OF_ASC_NODE,ARG_OF_PERICENTER,MEAN_ANOMALY,BSTAR,MEAN_MOTION_DOT,MEAN_MOTION_DDOT,TLE_LINE0,TLE_LINE1,TLE_LINE2,SEMIMAJOR_AXIS,PERIOD,APOGEE,PERIGEE,DECAYED
53286.0,STARLINK-4165,PAYLOAD,2023-02-15 14:24:17,15.08859301,0.000111,53.2169,163.4157,97.8798,262.232,0.00040996,6.246e-05,0.0,0 STARLINK-4165,1 53286U 22086AW  23046.60020831  .00006246  00000-0  40996-3 0  9996,2 53286  53.2169 163.4157 0001110  97.8798 262.2320 15.08859301 32394,6917.821,95.436,540.454,538.919,0.0
53286.0,STARLINK-4165,PAYLOAD,2023-02-15 17:35:04,15.08866629,0.0001113,53.2161,162.8199,104.3019,255.8097,0.00054757,8.444e-05,0.0,0 STARLINK-4165,1 53286U 22086AW  23046.73268598  .00008444  00000-0  54757-3 0  9996,2 53286  53.2161 162.8199 0001113 104.3019 255.8097 15.08866629 32253,6917.799,95.436,540.434,538.894,0.0
53286.0,STARLINK-4165,PAYLOAD,2023-02-16 03:07:23,15.0884457,0.0001835,53.2155,161.0342,120.7,239.4173,0.00014269,1.984e-05,0.0,0 STARLINK-4165,1 53286U 22086AW  23047.13013166  .00001984  00000-0  14269-3 0  9996,2 53286  53.2155 161.0342 0001835 120.7000 239.4173 15.08844570 32311,6917.866,95.437,541.001,538.462,0.0
53286.0,STARLINK-4165,PAYLOAD,2023-02-16 14:15:05,15.08848381,0.0001354,53.2159,158.9539,80.8837,279.2308,0.0002502,3.697e-05,0.0,0 STARLINK-4165,1 53286U 22086AW  23047.59381320  .00003697  00000-0  25020-3 0  9996,2 53286  53.2159 158.9539 0001354  80.8837 279.2308 15.08848381 32549,6917.855,95.437,540.656,538.783,0.0
53286.0,STARLINK-4165,PAYLOAD,2023-02-17 02:58:10,15.08840759,0.0001136,53.2173,156.5781,70.2819,289.8295,0.00018322,2.629e-05,0.0,0 STARLINK-4165,1 53286U 22086AW  23048.12373635  .00002629  00000-0  18322-3 0  9997,2 53286  53.2173 156.5781 0001136  70.2819 289.8295 15.08840759 32463,6917.878,95.438,540.529,538.957,0.0
53286.0,STARLINK-4165,PAYLOAD,2023-02-17 14:05:52,15.08844139,0.0001159,53.2174,154.4961,56.1828,303.9274,0.00021713,3.17e-05,0.0,0 STARLINK-4165,1 53286U 22086AW  23048.58741628  .00003170  00000-0  21713-3 0  9998,2 53286  53.2174 154.4961 0001159  56.1828 303.9274 15.08844139 32695,6917.868,95.437,540.535,538.931,0.0
53286.0,STARLINK-4165,PAYLOAD,2023-02-18 02:48:58,15.08825684,0.0001005,53.2197,152.1204,20.9543,339.149,3.3315e-05,2.42e-06,0.0,0 STARLINK-4165,1 53286U 22086AW  23049.11734626  .00000242  00000-0  33315-4 0  9997,2 53286  53.2197 152.1204 0001005  20.9543 339.1490 15.08825684 32615,6917.924,95.438,540.484,539.094,0.0
53286.0,STARLINK-4165,PAYLOAD,2023-02-18 09:10:32,15.08817779,0.0001543,53.216,150.9299,60.4532,299.6614,-2.5142e-06,-3.28e-06,0.0,0 STARLINK-4165,1 53286U 22086AW  23049.38231552 -.00000328  00000-0 -25142-5 0  9993,2 53286  53.2160 150.9299 0001543  60.4532 299.6614 15.08817779 32657,6917.948,95.439,540.881,538.746,0.0
53286.0,STARLINK-4165,PAYLOAD,2023-02-18 13:56:41,15.08822204,0.0001122,53.2178,150.0368,60.7026,299.4078,2.1733e-05,5.8e-07,0.0,0 STARLINK-4165,1 53286U 22086AW  23049.58103392  .00000058  00000-0  21733-4 0  9994,2 53286  53.2178 150.0368 0001122  60.7026 299.4078 15.08822204 32840,6917.935,95.439,540.576,539.024,0.0
53286.0,STARLINK-4165,PAYLOAD,2023-02-18 15:32:04,15.08830218,0.0001307,53.2167,149.7388,70.9367,289.1766,-8.4211e-06,-4.22e-06,0.0,0 STARLINK-4165,1 53286U 22086AW  23049.64727033 -.00000422  00000-0 -84211-5 0  9993,2 53286  53.2167 149.7388 0001307  70.9367 289.1766 15.08830218 32698,6917.91,95.438,540.679,538.871,0.0
53286.0,STARLINK-4165,PAYLOAD,2023-02-19 13:47:27,15.08855686,0.0001339,53.2165,145.5763,68.0623,292.0511,0.00078918,0.00012299,0.0,0 STARLINK-4165,1 53286U 22086AW  23050.57462753  .00012299  00000-0  78918-3 0  9990,2 53286  53.2165 145.5763 0001339  68.0623 292.0511 15.08855686 32838,6917.832,95.437,540.624,538.771,0.0
53286.0,STARLINK-4165,PAYLOAD,2023-02-20 00:55:09,15.08848667,0.000146,53.2165,143.4959,74.2661,285.8492,0.00033148,4.993e-05,0.0,0 STARLINK-4165,1 53286U 22086AW  23051.03830663  .00004993  00000-0  33148-3 0  9999,2 53286  53.2165 143.4959 0001460  74.2661 285.8492 15.08848667 32905,6917.854,95.437,540.729,538.709,0.0
53286.0,STARLINK-4165,PAYLOAD,2023-02-20 13:38:14,15.08850879,0.0001257,53.2166,141.1157,75.9678,284.1454,0.0003498,5.285e-05,0.0,0 STARLINK-4165,1 53286U 22086AW  23051.56822550  .00005285  00000-0  34980-3 0  9993,2 53286  53.2166 141.1157 0001257  75.9678 284.1454 15.08850879 33146,6917.847,95.437,540.582,538.843,0.0
53286.0,STARLINK-4165,PAYLOAD,2023-02-21 05:32:05,15.08850692,0.0001716,53.2168,138.1429,97.3882,262.7305,0.00062741,9.714e-05,0.0,0 STARLINK-4165,1 53286U 22086AW  23052.23062301  .00009714  00000-0  62741-3 0  9995,2 53286  53.2168 138.1429 0001716  97.3882 262.7305 15.08850692 33084,6917.848,95.437,540.9,538.526,0.0
53286.0,STARLINK-4165,PAYLOAD,2023-02-21 11:53:38,15.08861421,0.0001317,53.2164,136.9528,96.1561,263.9581,0.00085915,0.0001342,0.0,0 STARLINK-4165,1 53286U 22086AW  23052.49557963  .00013420  00000-0  85915-3 0  9993,2 53286  53.2164 136.9528 0001317  96.1561 263.9581 15.08861421 33287,6917.815,95.436,540.591,538.769,0.0
53286.0,STARLINK-4165,PAYLOAD,2023-02-21 16:39:47,15.0887746,0.0001353,53.2169,136.0594,98.2121,261.9025,0.0013657,0.00021536,0.0,0 STARLINK-4165,1 53286U 22086AW  23052.69429468  .00021536  00000-0  13657-2 0  9993,2 53286  53.2169 136.0594 0001353  98.2121 261.9025 15.08877460 33158,6917.766,95.435,540.567,538.695,0.0
53286.0,STARLINK-4165,PAYLOAD,2023-02-21 23:01:19,15.08852974,0.0001277,53.2168,134.8738,81.6454,278.4683,0.00036263,5.49e-05,0.0,0 STARLINK-4165,1 53286U 22086AW  23052.95925784  .00005490  00000-0  36263-3 0  9994,2 53286  53.2168 134.8738 0001277  81.6454 278.4683 15.08852974 33193,6917.841,95.437,540.589,538.822,0.0
53286.0,STARLINK-4165,PAYLOAD,2023-02-22 11:44:24,15.08849972,0.0001456,53.2162,132.4918,116.8211,243.293,0.0011753,0.00018471,0.0,0 STARLINK-4165,1 53286U 22086AW  23053.48917607  .00018471  00000-0  11753-2 0  9997,2 53286  53.2162 132.4918 0001456 116.8211 243.2930 15.08849972 33438,6917.85,95.437,540.722,538.708,0.0
53286.0,STARLINK-4165,PAYLOAD,2023-02-22 16:30:34,15.08855135,0.0001548,53.2163,131.5987,116.8465,243.2686,0.00095339,0.00014924,0.0,0 STARLINK-4165,1 53286U 22086AW  23053.68789362  .00014924  00000-0  95339-3 0  9996,2 53286  53.2163 131.5987 0001548 116.8465 243.2686 15.08855135 33467,6917.834,95.437,540.77,538.628,0.0
53286.0,STARLINK-4165,PAYLOAD,2023-02-23 11:35:12,15.08834784,0.0001349,53.2179,128.03,118.0151,242.0977,0.00034187,5.156e-05,0.0,0 STARLINK-4165,1 53286U 22086AW  23054.48278276  .00005156  00000-0  34187-3 0  9993,2 53286  53.2179 128.0300 0001349 118.0151 242.0977 15.08834784 33589,6917.896,95.438,540.695,538.828,0.0
53286.0,STARLINK-4165,PAYLOAD,2023-02-23 14:45:58,15.08838972,0.0001457,53.2177,127.4351,122.6919,237.4214,0.0007005,0.00010878,0.0,0 STARLINK-4165,1 53286U 22086AW  23054.61526323  .00010878  00000-0  70050-3 0  9993,2 53286  53.2177 127.4351 0001457 122.6919 237.4214 15.08838972 33449,6917.884,95.438,540.756,538.741,0.0
53286.0,STARLINK-4165,PAYLOAD,2023-02-23 16:21:21,15.08842584,0.0001412,53.218,127.1384,122.9924,237.1204,0.0008479,0.00013233,0.0,0 STARLINK-4165,1 53286U 22086AW  23054.68150270  .00013233  00000-0  84790-3 0  9998,2 53286  53.2180 127.1384 0001412 122.9924 237.1204 15.08842584 33615,6917.872,95.437,540.714,538.761,0.0
53286.0,STARLINK-4165,PAYLOAD,2023-02-24 11:25:59,15.08849411,0.0001432,53.2178,123.5718,117.5548,242.5589,0.0013428,0.00021153,0.0,0 STARLINK-4165,1 53286U 22086AW  23055.47638523  .00021153  00000-0  13428-2 0  9997,2 53286  53.2178 123.5718 0001432 117.5548 242.5589 15.08849411 33732,6917.852,95.437,540.707,538.726,0.0
53286.0,STARLINK-4165,PAYLOAD,2023-02-24 20:58:18,15.08832214,0.0001645,53.2178,121.7867,82.6021,277.5159,3.1733e-05,2.17e-06,0.0,0 STARLINK-4165,1 53286U 22086AW  23055.87382841  .00000217  00000-0  31733-4 0  9999,2 53286  53.2178 121.7867 0001645  82.6021 277.5159 15.08832214 33634,6917.904,95.438,540.907,538.631,0.0
53286.0,STARLINK-4165,PAYLOAD,2023-02-25 09:41:24,15.08822937,0.0001183,53.2167,119.4102,95.3909,264.7218,0.00049366,7.574e-05,0.0,0 STARLINK-4165,1 53286U 22086AW  23056.40375261  .00007574  00000-0  49366-3 0  9990,2 53286  53.2167 119.4102 0001183  95.3909 264.7218 15.08822937 33872,6917.933,95.439,540.616,538.979,0.0
53286.0,STARLINK-4165,PAYLOAD,2023-02-25 20:49:06,15.08834175,0.0001225,53.2167,117.3279,79.428,280.685,0.00062538,9.677e-05,0.0,0 STARLINK-4165,1 53286U 22086AW  23056.86743588  .00009677  00000-0  62538-3 0  9993,2 53286  53.2167 117.3279 0001225  79.4280 280.6850 15.08834175 33940,6917.898,95.438,540.611,538.916,0.0
53286.0,STARLINK-4165,PAYLOAD,2023-02-26 03:10:38,15.08846321,0.0001107,53.2168,116.1369,73.8492,286.2622,0.0010385,0.00016281,0.0,0 STARLINK-4165,1 53286U 22086AW  23057.13239482  .00016281  00000-0  10385-2 0  9998,2 53286  53.2168 116.1369 0001107  73.8492 286.2622 15.08846321 33822,6917.861,95.437,540.492,538.96,0.0
53286.0,STARLINK-4165,PAYLOAD,2023-02-26 09:32:11,15.08867026,0.0001197,53.2169,114.9485,76.1445,283.9681,0.0014442,0.00022788,0.0,0 STARLINK-4165,1 53286U 22086AW  23057.39734980  .00022788  00000-0  14442-2 0  9996,2 53286  53.2169 114.9485 0001197  76.1445 283.9681 15.08867026 33869,6917.798,95.436,540.491,538.835,0.0
53286.0,STARLINK-4165,PAYLOAD,2023-02-26 11:07:34,15.08869281,0.00011,53.2166,114.6514,80.1654,279.9463,0.0014263,0.00022503,0.0,0 STARLINK-4165,1 53286U 22086AW  23057.46358836  .00022503  00000-0  14263-2 0  9992,2 53286  53.2166 114.6514 0001100  80.1654 279.9463 15.08869281 34035,6917.791,95.436,540.417,538.895,0.0
53286.0,STARLINK-4165,PAYLOAD,2023-02-26 20:39:52,15.08836848,6.93e-05,53.217,112.8664,104.709,255.3979,-0.00044011,-7.284e-05,0.0,0 STARLINK-4165,1 53286U 22086AW  23057.86102801 -.00007284  00000-0 -44011-3 0  9991,2 53286  53.2170 112.8664 0000693 104.7090 255.3979 15.08836848 34098,6917.89,95.438,540.234,539.276,0.0
